{"type": "FeatureCollection", "features": [ {"type": "Feature", "properties": {"norad_id": 39634, "name": "SENTINEL-1A", "group": "resource", "lat": -65.02576506118645, "lon": 164.41977075072975, "alt_km": 703.824483984502, "timestamp": "2025-12-23T07:45:09.053640+00:00", "meta": {"OBJECT_NAME": "SENTINEL-1A", "OBJECT_ID": "2014-016A", "EPOCH": "2025-12-23T00:02:40.170048", "MEAN_MOTION": 14.592005, "ECCENTRICITY": 0.0001261, "INCLINATION": 98.1796, "RA_OF_ASC_NODE": 2.0912, "ARG_OF_PERICENTER": 84.552, "MEAN_ANOMALY": 275.5824, "EPHEMERIS_TYPE": 0, "CLASSIFICATION_TYPE": "U", "NORAD_CAT_ID": 39634, "ELEMENT_SET_NO": 999, "REV_AT_EPOCH": 62432, "BSTAR": -3.4273801e-05, "MEAN_MOTION_DOT": -2.07e-06, "MEAN_MOTION_DDOT": 0}, "tle": {"line1": "1 39634U 14016A   25357.00185382 -.00000207  00000+0 -34274-4 0  9990", "line2": "2 39634  98.1796   2.0912 0001261  84.5520 275.5824 14.59200500624321"}}, "geometry": {"type": "Point", "coordinates": [164.41977075072975, -65.02576506118645]}}, {"type": "Feature", "properties": {"norad_id": 39731, "name": "KAZEOSAT 1", "group": "resource", "lat": -69.37344038785437, "lon": 91.93726102989602, "alt_km": 759.7855057547049, "timestamp": "2025-12-23T07:45:09.053650+00:00", "meta": {"OBJECT_NAME": "KAZEOSAT 1", "OBJECT_ID": "2014-024A", "EPOCH": "2025-12-22T23:45:19.596096", "MEAN_MOTION": 14.42067413, "ECCENTRICITY": 0.00012212, "INCLINATION": 98.3425, "RA_OF_ASC_NODE": 68.6671, "ARG_OF_PERICENTER": 97.3807, "MEAN_ANOMALY": 262.7522, "EPHEMERIS_TYPE": 0, "CLASSIFICATION_TYPE": "U", "NORAD_CAT_ID": 39731, "ELEMENT_SET_NO": 999, "REV_AT_EPOCH": 61316, "BSTAR": 4.3595378e-05, "MEAN_MOTION_DOT": 1e-06, "MEAN_MOTION_DDOT": 0}, "tle": {"line1": "1 39731U 14024A   25356.98981014  .00000100  00000+0  43595-4 0  9995", "line2": "2 39731  98.3425  68.6671 0001221  97.3807 262.7522 14.42067413613165"}}, "geometry": {"type": "Point", "coordinates": [91.93726102989602, -69.37344038785437]}}, {"type": "Feature", "properties": {"norad_id": 39766, "name": "ALOS-2", "group": "resource", "lat": 23.806357918394113, "lon": -84.45869263047868, "alt_km": 629.9572741140228, "timestamp": "2025-12-23T07:45:09.053660+00:00", "meta": {"OBJECT_NAME": "ALOS-2", "OBJECT_ID": "2014-029A", "EPOCH": "2025-12-22T19:41:17.710368", "MEAN_MOTION": 14.79476878, "ECCENTRICITY": 0.00014161, "INCLINATION": 97.923, "RA_OF_ASC_NODE": 91.5233, "ARG_OF_PERICENTER": 97.8876, "MEAN_ANOMALY": 262.2496, "EPHEMERIS_TYPE": 0, "CLASSIFICATION_TYPE": "U", "NORAD_CAT_ID": 39766, "ELEMENT_SET_NO": 999, "REV_AT_EPOCH": 62550, "BSTAR": 0.00022009093, "MEAN_MOTION_DOT": 1.593e-05, "MEAN_MOTION_DDOT": 0}, "tle": {"line1": "1 39766U 14029A   25356.82034387  .00001593  00000+0  22009-3 0  9996", "line2": "2 39766  97.9230  91.5233 0001416  97.8876 262.2496 14.79476878625503"}}, "geometry": {"type": "Point", "coordinates": [-84.45869263047868, 23.806357918394113]}}, {"type": "Feature", "properties": {"norad_id": 40010, "name": "KAZEOSAT 2", "group": "resource", "lat": -75.14581652830597, "lon": -128.9073231606026, "alt_km": 622.6754447073936, "timestamp": "2025-12-23T07:45:09.053670+00:00", "meta": {"OBJECT_NAME": "KAZEOSAT 2", "OBJECT_ID": "2014-033A", "EPOCH": "2025-12-22T22:23:53.814336", "MEAN_MOTION": 14.85185305, "ECCENTRICITY": 0.000855, "INCLINATION": 97.5494, "RA_OF_ASC_NODE": 200.7213, "ARG_OF_PERICENTER": 171.0648, "MEAN_ANOMALY": 189.0721, "EPHEMERIS_TYPE": 0, "CLASSIFICATION_TYPE": "U", "NORAD_CAT_ID": 40010, "ELEMENT_SET_NO": 999, "REV_AT_EPOCH": 62279, "BSTAR": 0.00016435957, "MEAN_MOTION_DOT": 1.359e-05, "MEAN_MOTION_DDOT": 0}, "tle": {"line1": "1 40010U 14033A   25356.93326174  .00001359  00000+0  16436-3 0  9992", "line2": "2 40010  97.5494 200.7213 0008550 171.0648 189.0721 14.85185305622799"}}, "geometry": {"type": "Point", "coordinates": [-128.9073231606026, -75.14581652830597]}}, {"type": "Feature", "properties": {"norad_id": 40011, "name": "HODOYOSHI-4", "group": "resource", "lat": 78.49596857595392, "lon": 46.29080063505175, "alt_km": 591.5956352416642, "timestamp": "2025-12-23T07:45:09.053680+00:00", "meta": {"OBJECT_NAME": "HODOYOSHI-4", "OBJECT_ID": "2014-033B", "EPOCH": "2025-12-22T23:14:15.120384", "MEAN_MOTION": 14.8751905, "ECCENTRICITY": 0.00239495, "INCLINATION": 97.5407, "RA_OF_ASC_NODE": 185.3478, "ARG_OF_PERICENTER": 166.0931, "MEAN_ANOMALY": 194.0951, "EPHEMERIS_TYPE": 0, "CLASSIFICATION_TYPE": "U", "NORAD_CAT_ID": 40011, "ELEMENT_SET_NO": 999, "REV_AT_EPOCH": 62260, "BSTAR": 0.00025463946, "MEAN_MOTION_DOT": 2.269e-05, "MEAN_MOTION_DDOT": 0}, "tle": {"line1": "1 40011U 14033B   25356.96823056  .00002269  00000+0  25464-3 0  9999", "line2": "2 40011  97.5407 185.3478 0023949 166.0931 194.0951 14.87519050622604"}}, "geometry": {"type": "Point", "coordinates": [46.29080063505175, 78.49596857595392]}}, {"type": "Feature", "properties": {"norad_id": 40013, "name": "DEIMOS-2", "group": "resource", "lat": 72.94504865650633, "lon": 78.59812493926914, "alt_km": 580.5059036977582, "timestamp": "2025-12-23T07:45:09.053690+00:00", "meta": {"OBJECT_NAME": "DEIMOS-2", "OBJECT_ID": "2014-033D", "EPOCH": "2025-12-22T21:37:54.698592", "MEAN_MOTION": 14.93015573, "ECCENTRICITY": 0.00014961, "INCLINATION": 97.6065, "RA_OF_ASC_NODE": 232.3666, "ARG_OF_PERICENTER": 101.9004, "MEAN_ANOMALY": 258.2384, "EPHEMERIS_TYPE": 0, "CLASSIFICATION_TYPE": "U", "NORAD_CAT_ID": 40013, "ELEMENT_SET_NO": 999, "REV_AT_EPOCH": 61141, "BSTAR": 0.00018428634, "MEAN_MOTION_DOT": 1.862e-05, "MEAN_MOTION_DDOT": 0}, "tle": {"line1": "1 40013U 14033D   25356.90132753  .00001862  00000+0  18429-3 0  9993", "line2": "2 40013  97.6065 232.3666 0001496 101.9004 258.2384 14.93015573611419"}}, "geometry": {"type": "Point", "coordinates": [78.59812493926914, 72.94504865650633]}}, {"type": "Feature", "properties": {"norad_id": 40015, "name": "HODOYOSHI-3", "group": "resource", "lat": -75.04648479156754, "lon": -167.21682906407534, "alt_km": 613.9563962026778, "timestamp": "2025-12-23T07:45:09.053700+00:00", "meta": {"OBJECT_NAME": "HODOYOSHI-3", "OBJECT_ID": "2014-033F", "EPOCH": "2025-12-22T22:23:45.491424", "MEAN_MOTION": 14.84839915, "ECCENTRICITY": 0.00323817, "INCLINATION": 97.6205, "RA_OF_ASC_NODE": 162.3253, "ARG_OF_PERICENTER": 213.2744, "MEAN_ANOMALY": 146.6436, "EPHEMERIS_TYPE": 0, "CLASSIFICATION_TYPE": "U", "NORAD_CAT_ID": 40015, "ELEMENT_SET_NO": 999, "REV_AT_EPOCH": 62146, "BSTAR": 0.00018685187, "MEAN_MOTION_DOT": 1.549e-05, "MEAN_MOTION_DDOT": 0}, "tle": {"line1": "1 40015U 14033F   25356.93316541  .00001549  00000+0  18685-3 0  9993", "line2": "2 40015  97.6205 162.3253 0032381 213.2744 146.6436 14.84839915621464"}}, "geometry": {"type": "Point", "coordinates": [-167.21682906407534, -75.04648479156754]}}, {"type": "Feature", "properties": {"norad_id": 40053, "name": "SPOT 7", "group": "resource", "lat": 10.32836948258702, "lon": -119.36044685366909, "alt_km": 692.2612518504438, "timestamp": "2025-12-23T07:45:09.053710+00:00", "meta": {"OBJECT_NAME": "SPOT 7", "OBJECT_ID": "2014-034A", "EPOCH": "2025-12-22T22:45:34.321824", "MEAN_MOTION": 14.60745193, "ECCENTRICITY": 0.00015581, "INCLINATION": 98.0894, "RA_OF_ASC_NODE": 58.7883, "ARG_OF_PERICENTER": 83.4642, "MEAN_ANOMALY": 276.6736, "EPHEMERIS_TYPE": 0, "CLASSIFICATION_TYPE": "U", "NORAD_CAT_ID": 40053, "ELEMENT_SET_NO": 999, "REV_AT_EPOCH": 61140, "BSTAR": 9.0609676e-05, "MEAN_MOTION_DOT": 3.96e-06, "MEAN_MOTION_DDOT": 0}, "tle": {"line1": "1 40053U 14034A   25356.94831391  .00000396  00000+0  90610-4 0  9990", "line2": "2 40053  98.0894  58.7883 0001558  83.4642 276.6736 14.60745193611406"}}, "geometry": {"type": "Point", "coordinates": [-119.36044685366909, 10.32836948258702]}}, {"type": "Feature", "properties": {"norad_id": 40072, "name": "SKYSAT-B", "group": "resource", "lat": 36.2976299487487, "lon": -64.61402989377561, "alt_km": 603.1197112302671, "timestamp": "2025-12-23T07:45:09.053719+00:00", "meta": {"OBJECT_NAME": "SKYSAT-B", "OBJECT_ID": "2014-037D", "EPOCH": "2025-12-22T20:17:08.751552", "MEAN_MOTION": 14.87361186, "ECCENTRICITY": 0.00067533, "INCLINATION": 98.3626, "RA_OF_ASC_NODE": 301.0856, "ARG_OF_PERICENTER": 121.7869, "MEAN_ANOMALY": 238.4005, "EPHEMERIS_TYPE": 0, "CLASSIFICATION_TYPE": "U", "NORAD_CAT_ID": 40072, "ELEMENT_SET_NO": 999, "REV_AT_EPOCH": 61974, "BSTAR": 0.0001702773, "MEAN_MOTION_DOT": 1.478e-05, "MEAN_MOTION_DDOT": 0}, "tle": {"line1": "1 40072U 14037D   25356.84524018  .00001478  00000+0  17028-3 0  9991", "line2": "2 40072  98.3626 301.0856 0006753 121.7869 238.4005 14.87361186619741"}}, "geometry": {"type": "Point", "coordinates": [-64.61402989377561, 36.2976299487487]}}, {"type": "Feature", "properties": {"norad_id": 40115, "name": "WORLDVIEW-3 (WV-3)", "group": "resource", "lat": -20.98981266823693, "lon": -113.57102689025027, "alt_km": 619.4613987324346, "timestamp": "2025-12-23T07:45:09.053729+00:00", "meta": {"OBJECT_NAME": "WORLDVIEW-3 (WV-3)", "OBJECT_ID": "2014-048A", "EPOCH": "2025-12-22T22:45:43.920000", "MEAN_MOTION": 14.84670283, "ECCENTRICITY": 0.00019276, "INCLINATION": 97.8766, "RA_OF_ASC_NODE": 69.1035, "ARG_OF_PERICENTER": 132.368, "MEAN_ANOMALY": 227.7699, "EPHEMERIS_TYPE": 0, "CLASSIFICATION_TYPE": "U", "NORAD_CAT_ID": 40115, "ELEMENT_SET_NO": 999, "REV_AT_EPOCH": 61575, "BSTAR": 0.00012535975, "MEAN_MOTION_DOT": 1.007e-05, "MEAN_MOTION_DDOT": 0}, "tle": {"line1": "1 40115U 14048A   25356.94842500  .00001007  00000+0  12536-3 0  9998", "line2": "2 40115  97.8766  69.1035 0001927 132.3680 227.7699 14.84670283615751"}}, "geometry": {"type": "Point", "coordinates": [-113.57102689025027, -20.98981266823693]}}]}